OBJECT_NAME,OBJECT_ID,EPOCH,MEAN_MOTION,ECCENTRICITY,INCLINATION,RA_OF_ASC_NODE,ARG_OF_PERICENTER,MEAN_ANOMALY,EPHEMERIS_TYPE,CLASSIFICATION_TYPE,NORAD_CAT_ID,ELEMENT_SET_NO,REV_AT_EPOCH,BSTAR,MEAN_MOTION_DOT,MEAN_MOTION_DDOT
INMARSAT 4-F3,2008-039A,2026-06-04T14:48:24.816960,1.00270854,.00027655,4.2830,31.5854,46.4653,299.1037,0,U,33278,999,4641,0,-.129E-5,0
NIMIQ 4,2008-044A,2026-06-04T21:43:41.790720,1.00271169,.00020249,0.0116,81.8412,351.3279,64.1146,0,U,33373,999,6486,0,-.208E-5,0
GALAXY 19 (G-19),2008-045A,2026-06-04T21:39:19.710144,1.00270520,.00034956,0.0161,28.3304,63.7949,29.0501,0,U,33376,999,6478,0,-.127E-5,0
ASTRA 1M,2008-057A,2026-06-04T22:12:31.026240,1.00273344,.00050938,0.2644,82.2658,17.9290,145.6889,0,U,33436,999,4561,0,.133E-5,0
EUTELSAT HOTBIRD 13C,2008-065A,2026-06-04T21:52:40.929312,1.00272952,.00038761,2.9184,79.3362,355.4770,96.4065,0,U,33459,999,4722,0,-.271E-5,0
EXPRESS-AM44,2009-007A,2026-06-04T22:03:54.351648,1.00272211,.00044646,3.4322,78.5426,349.8284,144.9690,0,U,33595,999,5216,0,-.77E-6,0
NSS-9,2009-008A,2026-06-04T19:33:57.955104,1.00270781,.00023962,1.2294,82.7748,340.7080,306.3377,0,U,33749,999,6339,0,.84E-6,0
TELSTAR 11N,2009-009A,2026-06-04T21:56:18.081888,1.00270118,.00026448,0.0172,348.7952,78.7964,117.2884,0,U,34111,999,4612,0,-.239E-5,0
WGS F2 (USA 204),2009-017A,2026-06-04T18:23:53.686176,1.00272090,.00006021,0.0179,341.1935,239.0503,6.4607,0,U,34713,999,4549,0,.8E-6,0
SES-7 (PROTOSTAR 2),2009-027A,2026-06-04T20:09:38.599776,1.00277040,.00007463,0.0558,77.8538,331.8853,254.2002,0,U,34941,999,6250,0,-.333E-5,0
MEASAT-3A,2009-032A,2026-06-04T21:10:00.022080,1.00272452,.00032747,0.0225,344.6270,85.9616,300.2341,0,U,35362,999,790,0,-.98E-6,0
GOES 14,2009-033A,2026-06-04T17:07:18.289632,1.00115460,.00021324,1.6576,83.1922,0.0449,215.6931,0,U,35491,999,646,0,-.227E-5,0
FM-5,2009-034A,2026-06-04T21:42:26.911296,1.00272535,.00004069,0.0114,298.9217,18.7070,175.1655,0,U,35493,999,4652,0,-.188E-5,0
TERRESTAR-1,2009-035A,2026-06-04T14:44:13.441344,1.00272940,.00028179,5.1717,48.8048,17.8165,296.4763,0,U,35496,999,6200,0,-.46E-6,0
ASIASAT 5,2009-042A,2026-06-04T22:35:43.210176,1.00273203,.00015123,0.0103,73.5375,345.9887,273.2875,0,U,35696,999,6158,0,-.295E-5,0
JCSAT-12 (JCSAT-RA),2009-044A,2026-06-04T14:11:21.992064,1.00270764,.00003148,0.0238,50.1244,326.2659,221.5190,0,U,35755,999,6148,0,-.316E-5,0
OPTUS D3,2009-044B,2026-06-04T14:31:55.329600,1.00271026,.00033522,0.8625,269.9950,166.7808,190.3987,0,U,35756,999,6143,0,-.134E-5,0
NIMIQ 5,2009-050A,2026-06-04T21:46:19.039584,1.00270307,.00031707,0.0137,41.5608,36.0990,69.5634,0,U,35873,999,6122,0,-.245E-5,0
AMAZONAS 2,2009-054A,2026-06-04T21:46:48.991872,1.00123374,.00004753,1.7831,83.1985,59.0219,6.7362,0,U,35942,999,6106,0,-.238E-5,0
COMSATBW-1,2009-054B,2026-06-04T22:24:59.239008,1.00271470,.00031603,0.0522,72.9611,4.8612,214.8039,0,U,35943,999,6118,0,.37E-6,0
NSS-12,2009-058A,2026-06-04T22:23:14.407296,1.00272205,.00050889,0.0605,60.8245,344.4659,240.8964,0,U,36032,999,6079,0,.83E-6,0
THOR 6,2009-058B,2026-06-04T22:06:46.576224,1.00271789,.00022184,0.0318,103.1328,352.4955,128.5781,0,U,36033,999,6088,0,.2E-7,0
INTELSAT 14 (IS-14),2009-064A,2026-06-04T21:54:10.785312,1.00272954,.00028771,0.0116,312.3230,136.9029,87.6829,0,U,36097,999,6048,0,-.261E-5,0
EUTELSAT 36B,2009-065A,2026-06-04T21:29:18.167424,1.00269876,.00062498,0.4597,80.9686,351.6734,193.5253,0,U,36101,999,6058,0,.124E-5,0
INTELSAT 15 (IS-15),2009-067A,2026-06-04T19:12:21.632832,1.00272632,.00024691,0.0146,318.0491,117.3360,191.0971,0,U,36106,999,4110,0,-.173E-5,0
WGS F3 (USA 211),2009-068A,2026-06-04T21:29:50.620128,1.00270333,.00006593,0.3394,85.8485,336.5517,23.4184,0,U,36108,999,4647,0,.76E-6,0
DIRECTV 12,2009-075A,2026-06-04T14:38:50.775360,1.00273044,.00004871,0.0403,147.4672,266.6647,315.9192,0,U,36131,999,4642,0,-.92E-6,0
BEIDOU-2 G1,2010-001A,2026-06-04T14:38:38.768352,1.00269452,.00026264,4.2641,60.4472,313.3294,239.3682,0,U,36287,999,6004,0,-.269E-5,0
SDO,2010-005A,2026-06-04T07:48:38.613024,1.00271400,.00013318,34.6250,86.5380,46.7195,134.7054,0,U,36395,999,5993,0,-.7E-6,0
INTELSAT 16 (IS-16),2010-006A,2026-06-04T21:45:19.135008,1.00272002,.0002266,0.0139,27.9727,57.3147,58.2078,0,U,36397,999,5953,0,-.233E-5,0
EWS-G2 (GOES 15),2010-008A,2026-06-04T19:57:21.473856,1.00275904,.00055055,1.2437,83.0595,35.5705,137.5346,0,U,36411,999,5951,0,.31E-6,0
ECHOSTAR 14,2010-010A,2026-06-04T21:33:05.307840,1.00271847,.00025747,0.0399,85.0377,2.9165,9.7564,0,U,36499,999,4643,0,.12E-6,0
