INMARSAT 4-F3           
1 33278U 08039A   26155.61695390 -.00000129  00000+0  00000+0 0  9992
2 33278   4.2830  31.5854 0002765  46.4653 299.1037  1.00270854 46419
NIMIQ 4                 
1 33373U 08044A   26155.90534480 -.00000208  00000+0  00000+0 0  9996
2 33373   0.0116  81.8412 0002024 351.3279  64.1146  1.00271169 64864
GALAXY 19 (G-19)        
1 33376U 08045A   26155.90231146 -.00000127  00000+0  00000+0 0  9993
2 33376   0.0161  28.3304 0003495  63.7949  29.0501  1.00270520 64780
ASTRA 1M                
1 33436U 08057A   26155.92535910  .00000133  00000+0  00000+0 0  9997
2 33436   0.2644  82.2658 0005093  17.9290 145.6889  1.00273344 45614
EUTELSAT HOTBIRD 13C    
1 33459U 08065A   26155.91158483 -.00000271  00000+0  00000+0 0  9990
2 33459   2.9184  79.3362 0003876 355.4770  96.4065  1.00272952 47228
EXPRESS-AM44            
1 33595U 09007A   26155.91937907 -.00000077  00000+0  00000+0 0  9998
2 33595   3.4322  78.5426 0004464 349.8284 144.9690  1.00272211 52162
NSS-9                   
1 33749U 09008A   26155.81525411  .00000084  00000+0  00000+0 0  9999
2 33749   1.2294  82.7748 0002396 340.7080 306.3377  1.00270781 63390
TELSTAR 11N             
1 34111U 09009A   26155.91409817 -.00000239  00000+0  00000+0 0  9999
2 34111   0.0172 348.7952 0002644  78.7964 117.2884  1.00270118 46121
WGS F2 (USA 204)        
1 34713U 09017A   26155.76659359  .00000080  00000+0  00000+0 0  9990
2 34713   0.0179 341.1935 0000602 239.0503   6.4607  1.00272090 45499
SES-7 (PROTOSTAR 2)     
1 34941U 09027A   26155.84003009 -.00000333  00000+0  00000+0 0  9990
2 34941   0.0558  77.8538 0000746 331.8853 254.2002  1.00277040 62506
MEASAT-3A               
1 35362U 09032A   26155.88194470 -.00000098  00000+0  00000+0 0  9999
2 35362   0.0225 344.6270 0003274  85.9616 300.2341  1.00272452  7909
GOES 14                 
1 35491U 09033A   26155.71340613 -.00000227  00000+0  00000+0 0  9991
2 35491   1.6576  83.1922 0002132   0.0449 215.6931  1.00115460  6460
FM-5                    
1 35493U 09034A   26155.90447814 -.00000188  00000+0  00000+0 0  9992
2 35493   0.0114 298.9217 0000406  18.7070 175.1655  1.00272535 46525
TERRESTAR-1             
1 35496U 09035A   26155.61404446 -.00000046  00000+0  00000+0 0  9991
2 35496   5.1717  48.8048 0002817  17.8165 296.4763  1.00272940 62008
ASIASAT 5               
1 35696U 09042A   26155.94147234 -.00000295  00000+0  00000+0 0  9992
2 35696   0.0103  73.5375 0001512 345.9887 273.2875  1.00273203 61580
JCSAT-12 (JCSAT-RA)     
1 35755U 09044A   26155.59122676 -.00000316  00000+0  00000+0 0  9998
2 35755   0.0238  50.1244 0000314 326.2659 221.5190  1.00270764 61483
OPTUS D3                
1 35756U 09044B   26155.60550150 -.00000134  00000+0  00000+0 0  9991
2 35756   0.8625 269.9950 0003352 166.7808 190.3987  1.00271026 61438
NIMIQ 5                 
1 35873U 09050A   26155.90716481 -.00000245  00000+0  00000+0 0  9995
2 35873   0.0137  41.5608 0003170  36.0990  69.5634  1.00270307 61225
AMAZONAS 2              
1 35942U 09054A   26155.90751148 -.00000238  00000+0  00000+0 0  9997
2 35942   1.7831  83.1985 0000475  59.0219   6.7362  1.00123374 61069
COMSATBW-1              
1 35943U 09054B   26155.93401897  .00000037  00000+0  00000+0 0  9990
2 35943   0.0522  72.9611 0003160   4.8612 214.8039  1.00271470 61187
NSS-12                  
1 36032U 09058A   26155.93280564  .00000083  00000+0  00000+0 0  9991
2 36032   0.0605  60.8245 0005088 344.4659 240.8964  1.00272205 60792
THOR 6                  
1 36033U 09058B   26155.92137241  .00000002  00000+0  00000+0 0  9995
2 36033   0.0318 103.1328 0002218 352.4955 128.5781  1.00271789 60882
INTELSAT 14 (IS-14)     
1 36097U 09064A   26155.91262483 -.00000261  00000+0  00000+0 0  9996
2 36097   0.0116 312.3230 0002877 136.9029  87.6829  1.00272954 60481
EUTELSAT 36B            
1 36101U 09065A   26155.89534916  .00000124  00000+0  00000+0 0  9990
2 36101   0.4597  80.9686 0006249 351.6734 193.5253  1.00269876 60581
INTELSAT 15 (IS-15)     
1 36106U 09067A   26155.80025038 -.00000173  00000+0  00000+0 0  9993
2 36106   0.0146 318.0491 0002469 117.3360 191.0971  1.00272632 41104
WGS F3 (USA 211)        
1 36108U 09068A   26155.89572477  .00000076  00000+0  00000+0 0  9990
2 36108   0.3394  85.8485 0000659 336.5517  23.4184  1.00270333 46479
DIRECTV 12              
1 36131U 09075A   26155.61030990 -.00000092  00000+0  00000+0 0  9992
2 36131   0.0403 147.4672 0000487 266.6647 315.9192  1.00273044 46427
BEIDOU-2 G1             
1 36287U 10001A   26155.61017093 -.00000269  00000+0  00000+0 0  9990
2 36287   4.2641  60.4472 0002626 313.3294 239.3682  1.00269452 60041
SDO                     
1 36395U 10005A   26155.32544691 -.00000070  00000+0  00000+0 0  9991
2 36395  34.6250  86.5380 0001331  46.7195 134.7054  1.00271400 59933
INTELSAT 16 (IS-16)     
1 36397U 10006A   26155.90647147 -.00000233  00000+0  00000+0 0  9999
2 36397   0.0139  27.9727 0002266  57.3147  58.2078  1.00272002 59536
EWS-G2 (GOES 15)        
1 36411U 10008A   26155.83149854  .00000031  00000+0  00000+0 0  9997
2 36411   1.2437  83.0595 0005505  35.5705 137.5346  1.00275904 59511
ECHOSTAR 14             
1 36499U 10010A   26155.89797810  .00000012  00000+0  00000+0 0  9992
2 36499   0.0399  85.0377 0002574   2.9165   9.7564  1.00271847 46433
